#aV2008 12  1  0  0   .00000000      96 DD+AD WGS84 FIT  NGA
## 1508  86400.00000000   900.00000000 54801  .0000000000000
+   31     2  3  4  5  6  7  8  9 10 11 12 13 14 15 16 17 18
+         19 20 21 22 23 24 25 26 27 28 29 30 31 32  0  0  0
+          0  0  0  0  0  0  0  0  0  0  0  0  0  0  0  0  0
+          0  0  0  0  0  0  0  0  0  0  0  0  0  0  0  0  0
+          0  0  0  0  0  0  0  0  0  0  0  0  0  0  0  0  0
++         0  0  0  0  0  0  0  0  0  0  0  0  0  0  0  0  0
++         0  0  0  0  0  0  0  0  0  0  0  0  0  0  0  0  0
++         0  0  0  0  0  0  0  0  0  0  0  0  0  0  0  0  0
++         0  0  0  0  0  0  0  0  0  0  0  0  0  0  0  0  0
++         0  0  0  0  0  0  0  0  0  0  0  0  0  0  0  0  0
%c cc cc ccc ccc cccc cccc cccc cccc ccccc ccccc ccccc ccccc
%c cc cc ccc ccc cccc cccc cccc cccc ccccc ccccc ccccc ccccc
%f  0.0000000  0.000000000  0.00000000000  0.000000000000000
%f  0.0000000  0.000000000  0.00000000000  0.000000000000000
%i    0    0    0    0      0      0      0      0         0
%i    0    0    0    0      0      0      0      0         0
/*      NGA, ST. LOUIS,MO.                                  
/*   EPHEMERIS COMPUTED FROM  3 DAYS OF DATA                
/* CCCCCCCCCCCCCCCCCCCCCCCCCCCCCCCCCCCCCCCCCCCCCCCCCCCCCCCCC
/* CCCCCCCCCCCCCCCCCCCCCCCCCCCCCCCCCCCCCCCCCCCCCCCCCCCCCCCCC
*  2008 12  1 12 45   .00000000                                                 
P  2 -22626.479670  12843.371882  -4325.281137    169.696936                    
V  2   2178.081336  -6149.102569 -30940.301595      -.023561                    
P  3  12597.384910 -11958.464763  19711.049003    318.719058                    
V  3   7020.655404  24985.758839  10868.683159       .052382                    
P  4 -21666.638334   1438.667022 -15659.325973   -250.249142                    
V  4  14737.494418 -13050.049644 -21385.383204      -.125055                    
P  5   3388.964693  16857.974292 -20567.171889   -398.092634                    
V  5 -24444.172354  -7270.989750 -10011.768517       .049726                    
P  6  14715.278676  -7246.344648  21073.378887    132.143159                    
V  6   4530.020228  26062.884792   5864.416882      -.084739                    
P  7  -4473.292695 -15041.747600  21393.622827     23.451195                    
V  7  22393.743674 -15476.604518  -6298.031236       .001287                    
P  8 -16520.257119  -5287.895709  20198.261996   -180.257725                    
V  8  21222.372376 -14280.976831  13092.438761      -.016410                    
P  9 -10938.396372  20305.562874 -13707.205904     27.541898                    
V  9 -14013.707488   8643.686503  25287.982812       .018041                    
P 10 -19017.123518   4791.444699  17923.952047     -7.818095                    
V 10 -20063.859117 -11174.639088 -17825.906282      -.004374                    
P 11   6925.934318 -22376.487863 -12380.760249     14.316519                    
V 11  13766.912810  -8774.344602  24275.525635      -.009047                    
P 12  -1890.431881  15444.841046 -21465.296569   -336.976336                    
V 12 -25143.407509 -10888.200550  -5506.812684       .026389                    
P 13  -4878.843754 -25490.811882   5536.959626    279.416582                    
V 13   1320.218332  -7231.553718 -31473.134292       .014486                    
P 14  14096.416046   9338.121477 -20395.945941   -187.562960                    
V 14   1071.686044  26046.157213  12483.340852       .049107                    
P 15  -7572.952406  21174.264899  14140.241079   -219.750581                    
V 15  -4299.670513 -17543.692731  24055.195918      -.060627                    
P 16  22683.863046     -7.938118  14049.659732     91.824864                    
V 16  15165.512209   9205.059961 -24372.088169      -.024599                    
P 17 -14376.245236 -11889.820987 -18928.994162     41.327103                    
V 17   -790.786920 -24096.097039  15521.667466       .004893                    
P 18  17387.437086  17253.287991  10922.561730   -107.436261                    
V 18 -13210.996041  -3622.994957  26916.955145       .038164                    
P 19   8337.973095 -21653.965529  12788.594418     35.237370                    
V 19   3024.994615  16140.773977  25699.742252      -.002542                    
P 20  -1681.600928 -16862.382734 -20578.573622     97.583586                    
V 20  24247.717293   9194.710503  -9525.623669      -.010195                    
P 21  10260.594379  12181.567136  21493.099152     40.253239                    
V 21 -22156.914794  15186.764159   1371.841102      -.016099                    
P 22  23937.517980  11570.802671   -343.712450    208.632023                    
V 22   -918.650422   3272.573006  31310.361610      -.006788                    
P 23     -9.967151 -26156.462100  -3728.344738    381.549797                    
V 23   3138.149004   4419.751767 -31683.247979       .010476                    
P 24  -5961.596433  19010.548173  17840.375221    145.526685                    
V 24 -19559.355871  10806.580289 -17926.829093       .033040                    
P 25   1860.180519 -18979.976331  18918.714636     66.904396                    
V 25  18192.202104 -14441.758284 -16418.546872       .293453                    
P 26 -10746.407424  15779.325464  17719.555763     21.526102                    
V 26  -2727.301099 -23545.910162  19296.488550       .042053                    
P 27 -10904.949416 -10795.957139  22375.231931      4.386058                    
V 27  20654.713674 -16972.467321   1824.748963       .031996                    
P 28 -23445.543505 -12778.391138   1911.749979    -23.690547                    
V 28   2757.075939  -1300.530030  31512.384811      -.000665                    
P 29   5011.828914  25781.055746   4196.008910    -27.279543                    
V 29  -2351.183358   5401.666106 -31102.998550       .020631                    
P 30  12251.203697  17414.409135 -16289.157564    111.068523                    
V 30 -19311.001626  -5615.629645 -20912.188371       .022435                    
P 31  22218.994107  -4576.765312 -13691.998305    -41.457908                    
V 31 -13155.015592  11969.823144 -24855.769820      -.017941                    
P 32   6844.524898 -13227.120700 -21571.629985    311.829213                    
V 32  24810.675574  13797.674064   -365.699482      -.016682                    
EOF
